GOES 1 (SMS-C)          
1 08366U 75100A   25316.30135431 -.00000101  00000+0  00000+0 0  9994
2 08366   5.1632 280.1655 0006005 332.3959 163.9075  1.00226456182899
GOES 2                  
1 10061U 77048A   25316.00947528 -.00000221  00000+0  00000+0 0  9990
2 10061   6.9398 295.1490 0011784  38.9525 190.0791  0.99396317 44112
GOES 3                  
1 10953U 78062A   25315.77518201 -.00000224  00000+0  00000+0 0  9995
2 10953   7.3966 300.8391 0003311 303.1413 253.8972  0.99365758126375
GOES 4                  
1 11964U 80074A   25316.24301625 -.00000134  00000+0  00000+0 0  9997
2 11964   8.4600 304.5579 0029817 103.3275  99.2661  0.99233039125281
GOES 5                  
1 12472U 81049A   25315.94215949 -.00000289  00000+0  00000+0 0  9995
2 12472   9.7508 317.0695 0004813 299.4595  63.7331  1.00244888120671
GOES 6                  
1 14050U 83041A   25315.53795212 -.00000213  00000+0  00000+0 0  9991
2 14050  10.5405 322.6241 0003998 258.5992 295.1127  1.00227394213838
GOES 7                  
1 17561U 87022A   25316.24483626  .00000023  00000+0  00000+0 0  9994
2 17561  13.1256 339.1579 0001345 340.7606 197.1491  0.99903948124792
GOES 8                  
1 23051U 94022A   25315.88504583 -.00000193  00000+0  00000+0 0  9997
2 23051  14.2438  15.3134 0001101  78.5786 277.8070  0.98907481121973
GOES 9                  
1 23581U 95025A   25315.48796701 -.00000274  00000+0  00000+0 0  9990
2 23581  13.7684  16.1217 0008024 190.2608 178.6335  0.98802671110611
GOES 10                 
1 24786U 97019A   25316.32554844 -.00000050  00000+0  00000+0 0  9999
2 24786  12.8713  22.6466 0032745 231.7642 113.6084  0.99125595103915
GOES 11                 
1 26352U 00022A   25315.82567883  .00000068  00000+0  00000+0 0  9997
2 26352  11.3412  48.5227 0006213 213.3831 149.0160  0.99039528 50329
GOES 12                 
1 26871U 01031A   25315.86433824  .00000035  00000+0  00000+0 0  9999
2 26871  11.7885  39.0804 0006468 269.8718  93.4065  0.99136362 88614
EWS-G1 (GOES 13)        
1 29155U 06018A   25316.24488992 -.00000214  00000+0  00000+0 0  9996
2 29155   3.9683  79.0556 0059714 267.9260 281.2941  0.98787889 41100
GOES 14                 
1 35491U 09033A   25316.21996278 -.00000070  00000+0  00000+0 0  9994
2 35491   1.1185  85.7427 0004147 139.9464 156.6718  1.00272342  4419
EWS-G2 (GOES 15)        
1 36411U 10008A   25316.11101447  .00000030  00000+0  00000+0 0  9991
2 36411   0.7353  85.8719 0006456 160.5150 266.8697  1.00277063 57464
GOES 16                 
1 41866U 16071A   25316.14443374 -.00000095  00000+0  00000+0 0  9990
2 41866   0.0713  84.4641 0003186 163.2608 111.1355  1.00271470 32924
GOES 17                 
1 43226U 18022A   25316.27191488 -.00000186  00000+0  00000+0 0  9991
2 43226   0.3788  89.7350 0003315 174.0116 156.3168  1.00271644 28240
GOES 18                 
1 51850U 22021A   25316.30853925  .00000093  00000+0  00000+0 0  9998
2 51850   0.0441  93.9500 0000801 187.7347 104.0966  1.00271271  4418
GOES 19                 
1 60133U 24119A   25316.27752770 -.00000252  00000+0  00000+0 0  9992
2 60133   0.0059 201.7071 0001174  85.8813 148.7949  1.00272589  4788
